ONEWEB-0153             
1 48044U 21025C   23231.57753983  .00000328  00000+0  86388-3 0  9996
2 48044  87.9081 165.6200 0002172  78.8823 281.2550 13.13467618118006
ONEWEB-0154             
1 48045U 21025D   23230.58511728  .00000367  00000+0  97007-3 0  9999
2 48045  87.9087 165.8237 0002123  80.9284 279.2085 13.13475295117836
ONEWEB-0116             
1 48046U 21025E   23230.55125840 -.00000214  00000+0 -61986-3 0  9993
2 48046  87.9083 165.8023 0001792  83.9409 276.1925 13.13468475117964
ONEWEB-0150             
1 48047U 21025F   23231.51405160  .00000270  00000+0  70522-3 0  9993
2 48047  87.9084 165.6358 0002103  74.6955 285.4407 13.13467187117984
ONEWEB-0107             
1 48048U 21025G   23231.36379954  .00000244  00000+0  63301-3 0  9996
2 48048  87.9085 165.6640 0002324  69.9404 290.1975 13.13472352117940
ONEWEB-0101             
1 48049U 21025H   23231.78491495 -.00000059  00000+0 -19769-3 0  9993
2 48049  87.9084 165.5909 0002255  80.4533 279.6850 13.13471591117972
ONEWEB-0113             
1 48050U 21025J   23231.83781197 -.00000288  00000+0 -82272-3 0  9995
2 48050  87.9081 165.6212 0001999  84.2433 275.8924 13.13468072118065
ONEWEB-0112             
1 48051U 21025K   23230.53009543 -.00000047  00000+0 -16408-3 0  9991
2 48051  87.9086 165.8273 0001712  74.8556 285.2762 13.13469022117918
